{
    "links": {
        "self": "http://www.neowsapp.com/rest/v1/neo/3719468?api_key=iIulBulltgU6a56xZRHN4H3l9WmuAYTsLGpBGhQ2"
    },
    "id": "3719468",
    "neo_reference_id": "3719468",
    "name": "(2015 KE19)",
    "designation": "2015 KE19",
    "nasa_jpl_url": "http://ssd.jpl.nasa.gov/sbdb.cgi?sstr=3719468",
    "absolute_magnitude_h": 24.6,
    "estimated_diameter": {
        "kilometers": {
            "estimated_diameter_min": 0.0319561887,
            "estimated_diameter_max": 0.0714562102
        },
        "meters": {
            "estimated_diameter_min": 31.9561886721,
            "estimated_diameter_max": 71.4562101727
        },
        "miles": {
            "estimated_diameter_min": 0.0198566489,
            "estimated_diameter_max": 0.0444008168
        },
        "feet": {
            "estimated_diameter_min": 104.8431420431,
            "estimated_diameter_max": 234.436392583
        }
    },
    "is_potentially_hazardous_asteroid": false,
    "close_approach_data": [
        {
            "close_approach_date": "2015-05-27",
            "close_approach_date_full": "2015-May-27 19:21",
            "epoch_date_close_approach": 1432754460000,
            "relative_velocity": {
                "kilometers_per_second": "18.4302550896",
                "kilometers_per_hour": "66348.9183225967",
                "miles_per_hour": "41226.6376099491"
            },
            "miss_distance": {
                "astronomical": "0.0612238237",
                "lunar": "23.8160674193",
                "kilometers": "9158953.618775519",
                "miles": "5691109.8784354022"
            },
            "orbiting_body": "Earth"
        }
    ],
    "orbital_data": {
        "orbit_id": "4",
        "orbit_determination_date": "2017-04-06 08:33:40",
        "first_observation_date": "2015-05-18",
        "last_observation_date": "2015-05-23",
        "data_arc_in_days": 5,
        "observations_used": 24,
        "orbit_uncertainty": "8",
        "minimum_orbit_intersection": ".0611957",
        "jupiter_tisserand_invariant": "4.065",
        "epoch_osculation": "2457162.5",
        "eccentricity": ".4859465844747377",
        "semi_major_axis": "1.634780775799686",
        "inclination": "25.78508280972104",
        "ascending_node_longitude": "61.21070230221724",
        "orbital_period": "763.4624995581722",
        "perihelion_distance": ".8403646414348667",
        "perihelion_argument": "253.5360536671982",
        "aphelion_distance": "2.429196910164505",
        "perihelion_time": "2457221.803624462586",
        "mean_anomaly": "332.0362102671891",
        "mean_motion": ".471535930328389",
        "equinox": "J2000",
        "orbit_class": {
            "orbit_class_type": "APO",
            "orbit_class_description": "Near-Earth asteroid orbits which cross the Earth’s orbit similar to that of 1862 Apollo",
            "orbit_class_range": "a (semi-major axis) > 1.0 AU; q (perihelion) < 1.017 AU"
        }
    },
    "is_sentry_object": false
}